LANDSAT 9               
1 49260U 21088A   24160.65573107  .00000889  00000+0  20716-3 0  9990
2 49260  98.1876 230.4194 0001031  96.3660 263.7656 14.57123694143454
